IONOSFERA-M 2           
1 61736U 24199B   26203.88317039  .00000027  00000+0  31471-4 0  9998
2 61736  98.7124  76.5810 0000812 131.3509 228.7739 14.22763514135907
PRSC-EO1                
1 62725U 25012A   26203.92721957  .00007563  00000+0  37823-3 0  9993
2 62725  97.4210 275.6847 0007281 124.8098 235.3822 15.17692237 83612
BIOMASS                 
1 63772U 25090A   26203.08190057  .00000607  00000+0  11542-3 0  9992
2 63772  98.0754  29.8887 0001465  88.6377 271.4995 14.67536612 65804
GOSAT-GW (IBUKI GW)     
1 64694U 25141A   26203.91723141  .00000031  00000+0  13834-4 0  9999
2 64694  98.0563 140.6540 0001436  88.4914 271.6455 14.67556318 57086
IONOSFERA-M 3           
1 64876U 25155A   26203.93284155  .00000048  00000+0  41731-4 0  9990
2 64876  98.6046 164.9423 0002453 100.5619 259.5835 14.21491886 51480
IONOSFERA-M 4           
1 64877U 25155B   26203.89723291  .00000042  00000+0  38943-4 0  9990
2 64877  98.6045 164.8246 0001901  91.8308 268.3088 14.21494269 51471
MICROCARB               
1 64899U 25156A   26203.20809284  .00000429  00000+0  74590-4 0  9994
2 64899  98.0069 279.8115 0018144 149.0641 211.1639 14.72890768 53122
CO3D 3                  
1 64900U 25156B   26203.86358085  .00003884  00000+0  18240-3 0  9994
2 64900  97.4334 282.0439 0001721  88.8378 271.3054 15.20210739 54957
CO3D 4                  
1 64901U 25156C   26203.86373679  .00004123  00000+0  19344-3 0  9994
2 64901  97.4333 282.0439 0002116 138.8395 221.3001 15.20211163 54950
CO3D 2                  
1 64902U 25156D   26203.89621186  .00004457  00000+0  20882-3 0  9996
2 64902  97.4334 281.9747 0001175  92.5086 267.6284 15.20210019 54954
CO3D 1                  
1 64903U 25156E   26203.89636579  .00004824  00000+0  22586-3 0  9990
2 64903  97.4333 281.9749 0001345  99.0943 261.0444 15.20197383 54953
PRSC-S1                 
1 65055U 25164A   26203.92893693  .00005217  00000+0  35663-3 0  9991
2 65055  41.1303  86.4749 0007711 243.8107 116.1914 15.06685639 53824
SENTINEL-6B             
1 66514U 25264A   26203.84460752 -.00000060  00000+0  31849-5 0  9996
2 66514  66.0410  61.1180 0007830 268.4456  91.5662 12.80930304 31734
CAS500-3                
1 66655U 25274F   26203.30897997  .00000945  00000+0  10772-3 0  9990
2 66655  97.7433 130.5612 0005693  17.9033 342.2384 14.88395594 35377
CSG-3                   
1 67304U 26001A   26203.77707723  .00000242  00000+0  36978-4 0  9996
2 67304  97.8899  26.8655 0001455  92.7211 267.4168 14.82167076 29738
PRSC-E03                
1 68835U 26092A   26203.51092225  .00001617  00000+0  11369-3 0  9995
2 68835  38.0000 241.3573 0004911 296.2140  63.8116 15.06830155 13280
CAS500-2                
1 69013U 26100AK  26203.29227646  .00005623  00000+0  26272-3 0  9996
2 69013  97.3842 100.4676 0007709 234.0961 125.9559 15.20173235 12149
